EUTELSAT 8 WEST B       
1 40875U 15039B   25351.55356225 -.00000041  00000+0  00000+0 0  9995
2 40875   0.0638 351.1029 0004311 276.7024   9.9190  1.00271857 37831
EUTELSAT 9B             
1 41310U 16005A   25351.55702894  .00000086  00000+0  00000+0 0  9999
2 41310   0.0563  69.7701 0004477 203.9880  22.1929  1.00271839 36293
EUTELSAT 65 WEST A      
1 41382U 16014A   25351.54229551 -.00000251  00000+0  00000+0 0  9996
2 41382   0.0567 325.7518 0002313 310.6139 300.0673  1.00270160 35713
EUTELSAT 117 WEST B     
1 41589U 16038B   25351.46503131  .00000013  00000+0  00000+0 0  9996
2 41589   0.0126 156.3845 0000253 104.8947 235.4811  1.00272667 34847
EUTELSAT 172B           
1 42741U 17029B   25351.52404347  .00000019  00000+0  00000+0 0  9990
2 42741   0.0468 148.1177 0000191 301.9397 356.9890  1.00272046 31905
EUTELSAT 7C             
1 44334U 19034B   25350.62922242  .00000072  00000+0  00000+0 0  9996
2 44334   0.0725 176.9051 0003076  71.4959  70.6234  1.00271584  5009
EUTELSAT 5 WEST B       
1 44624U 19067A   25351.34028525 -.00000017  00000+0  00000+0 0  9995
2 44624   0.0707 329.3039 0003182 297.2776 297.1542  1.00273495 22611
EUTELSAT KONNECT        
1 45027U 20005B   25350.70065041  .00000073  00000+0  00000+0 0  9991
2 45027   0.0734  96.0000 0001340 191.4860  57.5312  1.00270775 22507
